OBJECT_NAME,OBJECT_ID,EPOCH,MEAN_MOTION,ECCENTRICITY,INCLINATION,RA_OF_ASC_NODE,ARG_OF_PERICENTER,MEAN_ANOMALY,EPHEMERIS_TYPE,CLASSIFICATION_TYPE,NORAD_CAT_ID,ELEMENT_SET_NO,REV_AT_EPOCH,BSTAR,MEAN_MOTION_DOT,MEAN_MOTION_DDOT
STARLINK-31692,2024-076P,2026-06-14T07:46:24.865824,15.32763511,.00040281,42.9987,182.1998,81.4634,278.6676,0,U,59577,999,12129,.16835914E-2,.54536E-3,0
STARLINK-31685,2024-076Q,2026-06-12T19:20:35.851200,15.27576054,.00015436,42.9987,191.4649,246.6437,113.4252,0,U,59578,999,12105,.23807624E-4,.393E-5,0
STARLINK-31686,2024-076R,2026-06-13T07:59:23.373888,15.27581465,.00024672,43.0071,188.5486,279.7598,80.2975,0,U,59579,999,12113,.31437393E-4,.603E-5,0
STARLINK-31668,2024-076S,2026-06-13T18:41:50.913600,15.27586062,.00009463,43.0022,185.8784,274.2965,85.7779,0,U,59580,999,12120,.45691599E-4,.996E-5,0
STARLINK-31690,2024-076T,2026-06-14T07:46:33.349440,15.27568450,.0002158,43.0067,183.0860,275.3962,84.6643,0,U,59581,999,12129,-.26196399E-4,-.983E-5,0
STARLINK-31701,2024-076U,2026-06-13T18:01:18.434784,15.27773494,.00021815,43.0049,186.5229,268.1862,91.8740,0,U,59582,999,12110,.14593513E-2,.40356E-3,0
STARLINK-31697,2024-076V,2026-06-14T07:44:42.845568,15.27577837,.00017528,43.0079,183.0679,275.5468,84.5184,0,U,59583,999,12119,.47482278E-4,.1044E-4,0
STARLINK-31662,2024-076W,2026-06-13T18:10:36.062976,15.27544949,.00010344,42.9988,186.5714,274.0736,85.9997,0,U,59584,999,12119,.2849743E-3,.758E-4,0
STARLINK-31702,2024-076X,2026-06-13T18:34:38.366688,15.27583403,.00013252,43.0024,186.7000,285.0530,75.0175,0,U,59585,999,12119,.38051798E-4,.785E-5,0
STARLINK-31704,2024-076Y,2026-06-14T06:00:02.000160,15.48510530,.00184616,42.9892,129.1966,152.0858,226.4807,0,U,59586,999,591,.27228637E-2,.152009E-2,0
NEONSAT-1,2024-077A,2026-06-14T06:44:26.424960,15.38450499,.00089859,97.3499,249.2933,53.5083,306.6989,0,U,59587,999,11928,.37536644E-3,.14183E-3,0
ACS3,2024-077B,2026-06-14T04:34:34.067712,13.93842455,.00676378,97.1678,84.6447,66.5004,294.3252,0,U,59588,999,10762,.55011471E-2,.7369E-4,0
GSAT0225 (GALILEO 29),2024-079A,2026-06-14T04:21:04.314816,1.70473835,.00016267,55.1189,101.1643,297.4252,243.4663,0,U,59598,999,1326,0,-.11E-6,0
GSAT0227 (GALILEO 30),2024-079C,2026-06-13T11:35:59.900352,1.70473905,.00020572,55.1131,101.1822,48.7926,311.1811,0,U,59600,999,1330,0,-.7E-7,0
STARLINK-31770,2024-080A,2026-06-13T20:03:31.383360,15.27576907,.00013787,42.9975,215.2126,271.9678,88.1015,0,U,59601,999,12044,.23663744E-4,.389E-5,0
STARLINK-31778,2024-080B,2026-06-13T20:06:04.429728,15.27576219,.00011826,42.9999,211.7667,267.5480,92.5236,0,U,59602,999,11927,.10747603E-4,.34E-6,0
STARLINK-31776,2024-080C,2026-06-13T20:00:56.649600,15.27609628,.00000753,43.0031,218.6587,226.9300,133.1546,0,U,59603,999,11919,.17406632E-3,.4535E-4,0
STARLINK-31765,2024-080D,2026-06-13T09:56:43.396224,15.27582289,.00019395,43.0015,213.7497,274.8949,85.1681,0,U,59604,999,11921,.607506E-4,.141E-4,0
STARLINK-31767,2024-080E,2026-06-13T19:52:25.093344,15.27583273,.00011544,43.0036,215.1542,271.1384,88.9335,0,U,59605,999,11923,.36498888E-4,.742E-5,0
STARLINK-31782,2024-080F,2026-06-13T20:15:46.927296,15.27574193,.00011373,43.0003,218.7319,274.4388,85.6334,0,U,59606,999,11919,-.11729347E-4,-.585E-5,0
STARLINK-31755,2024-080G,2026-06-13T20:21:19.714176,15.27599127,.0001534,42.9964,218.7627,280.0324,80.0354,0,U,59607,999,11919,-.31079807E-4,-.1118E-4,0
STARLINK-31585,2024-080H,2026-06-12T20:40:52.835232,15.27593729,.00017992,43.0128,216.4784,278.5602,81.5046,0,U,59608,999,11914,-.1402184E-3,-.4121E-4,0
STARLINK-31667,2024-080J,2026-06-13T20:18:48.661056,15.27574095,.00017387,43.0040,210.9655,270.1642,89.9010,0,U,59609,999,11928,.2372203E-5,-.197E-5,0
STARLINK-31729,2024-080K,2026-06-13T19:58:39.869760,15.27573778,.00005132,42.9985,211.7288,316.9994,43.0817,0,U,59610,999,11927,.14229729E-4,.13E-5,0
STARLINK-31448,2024-080L,2026-06-13T19:36:27.915264,15.27578492,.00023358,42.9900,211.6069,284.0117,76.0475,0,U,59611,999,11927,-.11348922E-4,-.575E-5,0
STARLINK-31748,2024-080M,2026-06-13T09:43:46.076160,15.27583698,.00024867,43.0047,213.6861,284.0584,75.9992,0,U,59612,999,12038,.42220518E-4,.899E-5,0
STARLINK-31746,2024-080N,2026-06-13T20:26:52.457856,15.27576207,.00011989,43.0000,218.7655,270.2677,89.8037,0,U,59613,999,11919,-.4421639E-5,-.384E-5,0
STARLINK-31762,2024-080P,2026-06-13T19:46:51.223872,15.27583674,.00018355,42.9895,215.1204,278.7567,81.3076,0,U,59614,999,11923,.39876957E-4,.836E-5,0
STARLINK-31768,2024-080R,2026-06-13T10:18:13.759488,15.27581421,.00016107,43.0068,217.3207,271.7859,88.2808,0,U,59616,999,11917,.53116007E-4,.12E-4,0
STARLINK-31769,2024-080S,2026-06-13T20:09:04.792320,15.27563559,.00012134,43.0001,215.2398,263.2243,96.8470,0,U,59617,999,11923,.16189257E-3,.4193E-4,0
