STARLINK-31692          
1 59577U 24076P   26165.32389891  .00054536  00000+0  16836-2 0  9993
2 59577  42.9987 182.1998 0004028  81.4634 278.6676 15.32763511121293
STARLINK-31685          
1 59578U 24076Q   26163.80597050  .00000393  00000+0  23808-4 0  9994
2 59578  42.9987 191.4649 0001543 246.6437 113.4252 15.27576054121053
STARLINK-31686          
1 59579U 24076R   26164.33290942  .00000603  00000+0  31437-4 0  9995
2 59579  43.0071 188.5486 0002467 279.7598  80.2975 15.27581465121131
STARLINK-31668          
1 59580U 24076S   26164.77906150  .00000996  00000+0  45692-4 0  9993
2 59580  43.0022 185.8784 0000946 274.2965  85.7779 15.27586062121206
STARLINK-31690          
1 59581U 24076T   26165.32399710 -.00000983  00000+0 -26196-4 0  9990
2 59581  43.0067 183.0860 0002158 275.3962  84.6643 15.27568450121295
STARLINK-31701          
1 59582U 24076U   26164.75090781  .00040356  00000+0  14594-2 0  9996
2 59582  43.0049 186.5229 0002181 268.1862  91.8740 15.27773494121102
STARLINK-31697          
1 59583U 24076V   26165.32271812  .00001044  00000+0  47482-4 0  9992
2 59583  43.0079 183.0679 0001752 275.5468  84.5184 15.27577837121197
STARLINK-31662          
1 59584U 24076W   26164.75736184  .00007580  00000+0  28497-3 0  9992
2 59584  42.9988 186.5714 0001034 274.0736  85.9997 15.27544949121193
STARLINK-31702          
1 59585U 24076X   26164.77405517  .00000785  00000+0  38052-4 0  9997
2 59585  43.0024 186.7000 0001325 285.0530  75.0175 15.27583403121190
STARLINK-31704          
1 59586U 24076Y   26165.25002315  .00152009  00000+0  27229-2 0  9990
2 59586  42.9892 129.1966 0018461 152.0858 226.4807 15.48510530  5918
NEONSAT-1               
1 59587U 24077A   26165.28086140  .00014183  00000+0  37537-3 0  9997
2 59587  97.3499 249.2933 0008985  53.5083 306.6989 15.38450499119283
ACS3                    
1 59588U 24077B   26165.19067208  .00007369  00000+0  55011-2 0  9996
2 59588  97.1678  84.6447 0067637  66.5004 294.3252 13.93842455107625
GSAT0225 (GALILEO 29)   
1 59598U 24079A   26165.18129994 -.00000011  00000+0  00000+0 0  9992
2 59598  55.1189 101.1643 0001626 297.4252 243.4663  1.70473835 13267
GSAT0227 (GALILEO 30)   
1 59600U 24079C   26164.48333218 -.00000007  00000+0  00000+0 0  9999
2 59600  55.1131 101.1822 0002057  48.7926 311.1811  1.70473905 13302
STARLINK-31770          
1 59601U 24080A   26164.83577990  .00000389  00000+0  23664-4 0  9996
2 59601  42.9975 215.2126 0001378 271.9678  88.1015 15.27576907120440
STARLINK-31778          
1 59602U 24080B   26164.83755127  .00000034  00000+0  10748-4 0  9993
2 59602  42.9999 211.7667 0001182 267.5480  92.5236 15.27576219119272
STARLINK-31776          
1 59603U 24080C   26164.83398900  .00004535  00000+0  17407-3 0  9994
2 59603  43.0031 218.6587 0000075 226.9300 133.1546 15.27609628119197
STARLINK-31765          
1 59604U 24080D   26164.41439116  .00001410  00000+0  60751-4 0  9994
2 59604  43.0015 213.7497 0001939 274.8949  85.1681 15.27582289119219
STARLINK-31767          
1 59605U 24080E   26164.82806821  .00000742  00000+0  36499-4 0  9990
2 59605  43.0036 215.1542 0001154 271.1384  88.9335 15.27583273119235
STARLINK-31782          
1 59606U 24080F   26164.84429314 -.00000585  00000+0 -11729-4 0  9997
2 59606  43.0003 218.7319 0001137 274.4388  85.6334 15.27574193119191
STARLINK-31755          
1 59607U 24080G   26164.84814484 -.00001118  00000+0 -31080-4 0  9999
2 59607  42.9964 218.7627 0001534 280.0324  80.0354 15.27599127119197
STARLINK-31585          
1 59608U 24080H   26163.86172263 -.00004121  00000+0 -14022-3 0  9996
2 59608  43.0128 216.4784 0001799 278.5602  81.5046 15.27593729119146
STARLINK-31667          
1 59609U 24080J   26164.84639654 -.00000197  00000+0  23722-5 0  9995
2 59609  43.0040 210.9655 0001738 270.1642  89.9010 15.27574095119284
STARLINK-31729          
1 59610U 24080K   26164.83240590  .00000130  00000+0  14230-4 0  9992
2 59610  42.9985 211.7288 0000513 316.9994  43.0817 15.27573778119274
STARLINK-31448          
1 59611U 24080L   26164.81698976 -.00000575  00000+0 -11349-4 0  9999
2 59611  42.9900 211.6069 0002335 284.0117  76.0475 15.27578492119278
STARLINK-31748          
1 59612U 24080M   26164.40539440  .00000899  00000+0  42221-4 0  9995
2 59612  43.0047 213.6861 0002486 284.0584  75.9992 15.27583698120380
STARLINK-31746          
1 59613U 24080N   26164.85199604 -.00000384  00000+0 -44216-5 0  9997
2 59613  43.0000 218.7655 0001198 270.2677  89.8037 15.27576207119195
STARLINK-31762          
1 59614U 24080P   26164.82420398  .00000836  00000+0  39877-4 0  9998
2 59614  42.9895 215.1204 0001835 278.7567  81.3076 15.27583674119237
STARLINK-31768          
1 59616U 24080R   26164.42932592  .00001200  00000+0  53116-4 0  9998
2 59616  43.0068 217.3207 0001610 271.7859  88.2808 15.27581421119178
STARLINK-31769          
1 59617U 24080S   26164.83963880  .00004193  00000+0  16189-3 0  9990
2 59617  43.0001 215.2398 0001213 263.2243  96.8470 15.27563559119235
